<?xml version="1.0" encoding="UTF-8"?>
<ndm xmlns:xsi="http://www.w3.org/2001/XMLSchema-instance" xsi:noNamespaceSchemaLocation="https://sanaregistry.org/r/ndmxml_unqualified/ndmxml-2.0.0-master-2.0.xsd">
<omm id="CCSDS_OMM_VERS" version="2.0">
<header><CREATION_DATE/><ORIGINATOR/></header><body><segment><metadata><OBJECT_NAME>ONEWEB-0229</OBJECT_NAME><OBJECT_ID>2021-045N</OBJECT_ID><CENTER_NAME>EARTH</CENTER_NAME><REF_FRAME>TEME</REF_FRAME><TIME_SYSTEM>UTC</TIME_SYSTEM><MEAN_ELEMENT_THEORY>SGP4</MEAN_ELEMENT_THEORY></metadata><data><meanElements><EPOCH>2025-09-29T04:26:33.483264</EPOCH><MEAN_MOTION>13.15547210</MEAN_MOTION><ECCENTRICITY>.00016468</ECCENTRICITY><INCLINATION>87.8999</INCLINATION><RA_OF_ASC_NODE>311.2743</RA_OF_ASC_NODE><ARG_OF_PERICENTER>91.4921</ARG_OF_PERICENTER><MEAN_ANOMALY>268.6398</MEAN_ANOMALY></meanElements><tleParameters><EPHEMERIS_TYPE>0</EPHEMERIS_TYPE><CLASSIFICATION_TYPE>U</CLASSIFICATION_TYPE><NORAD_CAT_ID>48779</NORAD_CAT_ID><ELEMENT_SET_NO>999</ELEMENT_SET_NO><REV_AT_EPOCH>21009</REV_AT_EPOCH><BSTAR>.93636761E-4</BSTAR><MEAN_MOTION_DOT>.48E-6</MEAN_MOTION_DOT><MEAN_MOTION_DDOT>0</MEAN_MOTION_DDOT></tleParameters></data></segment></body></omm>
<omm id="CCSDS_OMM_VERS" version="2.0">
<header><CREATION_DATE/><ORIGINATOR/></header><body><segment><metadata><OBJECT_NAME>ONEWEB-0228</OBJECT_NAME><OBJECT_ID>2021-045P</OBJECT_ID><CENTER_NAME>EARTH</CENTER_NAME><REF_FRAME>TEME</REF_FRAME><TIME_SYSTEM>UTC</TIME_SYSTEM><MEAN_ELEMENT_THEORY>SGP4</MEAN_ELEMENT_THEORY></metadata><data><meanElements><EPOCH>2025-09-29T01:35:37.412736</EPOCH><MEAN_MOTION>13.15547172</MEAN_MOTION><ECCENTRICITY>.00017023</ECCENTRICITY><INCLINATION>87.9003</INCLINATION><RA_OF_ASC_NODE>311.2743</RA_OF_ASC_NODE><ARG_OF_PERICENTER>95.1088</ARG_OF_PERICENTER><MEAN_ANOMALY>265.0237</MEAN_ANOMALY></meanElements><tleParameters><EPHEMERIS_TYPE>0</EPHEMERIS_TYPE><CLASSIFICATION_TYPE>U</CLASSIFICATION_TYPE><NORAD_CAT_ID>48780</NORAD_CAT_ID><ELEMENT_SET_NO>999</ELEMENT_SET_NO><REV_AT_EPOCH>20999</REV_AT_EPOCH><BSTAR>-.16874373E-3</BSTAR><MEAN_MOTION_DOT>-.51E-6</MEAN_MOTION_DOT><MEAN_MOTION_DDOT>0</MEAN_MOTION_DDOT></tleParameters></data></segment></body></omm>
<omm id="CCSDS_OMM_VERS" version="2.0">
<header><CREATION_DATE/><ORIGINATOR/></header><body><segment><metadata><OBJECT_NAME>ONEWEB-0232</OBJECT_NAME><OBJECT_ID>2021-045Q</OBJECT_ID><CENTER_NAME>EARTH</CENTER_NAME><REF_FRAME>TEME</REF_FRAME><TIME_SYSTEM>UTC</TIME_SYSTEM><MEAN_ELEMENT_THEORY>SGP4</MEAN_ELEMENT_THEORY></metadata><data><meanElements><EPOCH>2025-09-29T04:37:59.029248</EPOCH><MEAN_MOTION>13.15548448</MEAN_MOTION><ECCENTRICITY>.00017719</ECCENTRICITY><INCLINATION>87.9000</INCLINATION><RA_OF_ASC_NODE>311.2408</RA_OF_ASC_NODE><ARG_OF_PERICENTER>94.5494</ARG_OF_PERICENTER><MEAN_ANOMALY>265.5839</MEAN_ANOMALY></meanElements><tleParameters><EPHEMERIS_TYPE>0</EPHEMERIS_TYPE><CLASSIFICATION_TYPE>U</CLASSIFICATION_TYPE><NORAD_CAT_ID>48781</NORAD_CAT_ID><ELEMENT_SET_NO>999</ELEMENT_SET_NO><REV_AT_EPOCH>21033</REV_AT_EPOCH><BSTAR>.19593775E-3</BSTAR><MEAN_MOTION_DOT>.87E-6</MEAN_MOTION_DOT><MEAN_MOTION_DDOT>0</MEAN_MOTION_DDOT></tleParameters></data></segment></body></omm>
<omm id="CCSDS_OMM_VERS" version="2.0">
<header><CREATION_DATE/><ORIGINATOR/></header><body><segment><metadata><OBJECT_NAME>ONEWEB-0231</OBJECT_NAME><OBJECT_ID>2021-045R</OBJECT_ID><CENTER_NAME>EARTH</CENTER_NAME><REF_FRAME>TEME</REF_FRAME><TIME_SYSTEM>UTC</TIME_SYSTEM><MEAN_ELEMENT_THEORY>SGP4</MEAN_ELEMENT_THEORY></metadata><data><meanElements><EPOCH>2025-09-29T02:16:30.479808</EPOCH><MEAN_MOTION>13.15546847</MEAN_MOTION><ECCENTRICITY>.00015117</ECCENTRICITY><INCLINATION>87.8994</INCLINATION><RA_OF_ASC_NODE>311.3118</RA_OF_ASC_NODE><ARG_OF_PERICENTER>98.1893</ARG_OF_PERICENTER><MEAN_ANOMALY>261.9409</MEAN_ANOMALY></meanElements><tleParameters><EPHEMERIS_TYPE>0</EPHEMERIS_TYPE><CLASSIFICATION_TYPE>U</CLASSIFICATION_TYPE><NORAD_CAT_ID>48782</NORAD_CAT_ID><ELEMENT_SET_NO>999</ELEMENT_SET_NO><REV_AT_EPOCH>21001</REV_AT_EPOCH><BSTAR>.41616703E-3</BSTAR><MEAN_MOTION_DOT>.169E-5</MEAN_MOTION_DOT><MEAN_MOTION_DDOT>0</MEAN_MOTION_DDOT></tleParameters></data></segment></body></omm>
<omm id="CCSDS_OMM_VERS" version="2.0">
<header><CREATION_DATE/><ORIGINATOR/></header><body><segment><metadata><OBJECT_NAME>ONEWEB-0234</OBJECT_NAME><OBJECT_ID>2021-045S</OBJECT_ID><CENTER_NAME>EARTH</CENTER_NAME><REF_FRAME>TEME</REF_FRAME><TIME_SYSTEM>UTC</TIME_SYSTEM><MEAN_ELEMENT_THEORY>SGP4</MEAN_ELEMENT_THEORY></metadata><data><meanElements><EPOCH>2025-09-29T01:21:32.727456</EPOCH><MEAN_MOTION>13.15546805</MEAN_MOTION><ECCENTRICITY>.00026305</ECCENTRICITY><INCLINATION>87.9002</INCLINATION><RA_OF_ASC_NODE>311.2892</RA_OF_ASC_NODE><ARG_OF_PERICENTER>101.6306</ARG_OF_PERICENTER><MEAN_ANOMALY>258.5119</MEAN_ANOMALY></meanElements><tleParameters><EPHEMERIS_TYPE>0</EPHEMERIS_TYPE><CLASSIFICATION_TYPE>U</CLASSIFICATION_TYPE><NORAD_CAT_ID>48783</NORAD_CAT_ID><ELEMENT_SET_NO>999</ELEMENT_SET_NO><REV_AT_EPOCH>21014</REV_AT_EPOCH><BSTAR>-.18652599E-3</BSTAR><MEAN_MOTION_DOT>-.57E-6</MEAN_MOTION_DOT><MEAN_MOTION_DDOT>0</MEAN_MOTION_DDOT></tleParameters></data></segment></body></omm>
<omm id="CCSDS_OMM_VERS" version="2.0">
<header><CREATION_DATE/><ORIGINATOR/></header><body><segment><metadata><OBJECT_NAME>ONEWEB-0238</OBJECT_NAME><OBJECT_ID>2021-045T</OBJECT_ID><CENTER_NAME>EARTH</CENTER_NAME><REF_FRAME>TEME</REF_FRAME><TIME_SYSTEM>UTC</TIME_SYSTEM><MEAN_ELEMENT_THEORY>SGP4</MEAN_ELEMENT_THEORY></metadata><data><meanElements><EPOCH>2025-09-28T12:35:16.234080</EPOCH><MEAN_MOTION>13.15550311</MEAN_MOTION><ECCENTRICITY>.00022163</ECCENTRICITY><INCLINATION>87.8999</INCLINATION><RA_OF_ASC_NODE>311.3908</RA_OF_ASC_NODE><ARG_OF_PERICENTER>98.8899</ARG_OF_PERICENTER><MEAN_ANOMALY>261.2482</MEAN_ANOMALY></meanElements><tleParameters><EPHEMERIS_TYPE>0</EPHEMERIS_TYPE><CLASSIFICATION_TYPE>U</CLASSIFICATION_TYPE><NORAD_CAT_ID>48784</NORAD_CAT_ID><ELEMENT_SET_NO>999</ELEMENT_SET_NO><REV_AT_EPOCH>20997</REV_AT_EPOCH><BSTAR>-.32936769E-3</BSTAR><MEAN_MOTION_DOT>-.111E-5</MEAN_MOTION_DOT><MEAN_MOTION_DDOT>0</MEAN_MOTION_DDOT></tleParameters></data></segment></body></omm>
<omm id="CCSDS_OMM_VERS" version="2.0">
<header><CREATION_DATE/><ORIGINATOR/></header><body><segment><metadata><OBJECT_NAME>ONEWEB-0240</OBJECT_NAME><OBJECT_ID>2021-045U</OBJECT_ID><CENTER_NAME>EARTH</CENTER_NAME><REF_FRAME>TEME</REF_FRAME><TIME_SYSTEM>UTC</TIME_SYSTEM><MEAN_ELEMENT_THEORY>SGP4</MEAN_ELEMENT_THEORY></metadata><data><meanElements><EPOCH>2025-09-28T13:05:53.692512</EPOCH><MEAN_MOTION>13.15551300</MEAN_MOTION><ECCENTRICITY>.00018146</ECCENTRICITY><INCLINATION>87.9005</INCLINATION><RA_OF_ASC_NODE>311.3727</RA_OF_ASC_NODE><ARG_OF_PERICENTER>108.6246</ARG_OF_PERICENTER><MEAN_ANOMALY>251.5081</MEAN_ANOMALY></meanElements><tleParameters><EPHEMERIS_TYPE>0</EPHEMERIS_TYPE><CLASSIFICATION_TYPE>U</CLASSIFICATION_TYPE><NORAD_CAT_ID>48785</NORAD_CAT_ID><ELEMENT_SET_NO>999</ELEMENT_SET_NO><REV_AT_EPOCH>21000</REV_AT_EPOCH><BSTAR>.13946957E-3</BSTAR><MEAN_MOTION_DOT>.65E-6</MEAN_MOTION_DOT><MEAN_MOTION_DDOT>0</MEAN_MOTION_DDOT></tleParameters></data></segment></body></omm>
<omm id="CCSDS_OMM_VERS" version="2.0">
<header><CREATION_DATE/><ORIGINATOR/></header><body><segment><metadata><OBJECT_NAME>ONEWEB-0246</OBJECT_NAME><OBJECT_ID>2021-045V</OBJECT_ID><CENTER_NAME>EARTH</CENTER_NAME><REF_FRAME>TEME</REF_FRAME><TIME_SYSTEM>UTC</TIME_SYSTEM><MEAN_ELEMENT_THEORY>SGP4</MEAN_ELEMENT_THEORY></metadata><data><meanElements><EPOCH>2025-09-29T01:44:32.551872</EPOCH><MEAN_MOTION>13.15550023</MEAN_MOTION><ECCENTRICITY>.0001645</ECCENTRICITY><INCLINATION>87.9006</INCLINATION><RA_OF_ASC_NODE>311.2801</RA_OF_ASC_NODE><ARG_OF_PERICENTER>93.7181</ARG_OF_PERICENTER><MEAN_ANOMALY>266.4137</MEAN_ANOMALY></meanElements><tleParameters><EPHEMERIS_TYPE>0</EPHEMERIS_TYPE><CLASSIFICATION_TYPE>U</CLASSIFICATION_TYPE><NORAD_CAT_ID>48786</NORAD_CAT_ID><ELEMENT_SET_NO>999</ELEMENT_SET_NO><REV_AT_EPOCH>20994</REV_AT_EPOCH><BSTAR>-.22404396E-3</BSTAR><MEAN_MOTION_DOT>-.72E-6</MEAN_MOTION_DOT><MEAN_MOTION_DDOT>0</MEAN_MOTION_DDOT></tleParameters></data></segment></body></omm>

</ndm>
