ONEWEB-0229             
1 48779U 21045N   25272.18510976  .00000048  00000+0  93637-4 0  9995
2 48779  87.8999 311.2743 0001646  91.4921 268.6398 13.15547210210094
ONEWEB-0228             
1 48780U 21045P   25272.06640524 -.00000051  00000+0 -16874-3 0  9990
2 48780  87.9003 311.2743 0001702  95.1088 265.0237 13.15547172209998
ONEWEB-0232             
1 48781U 21045Q   25272.19304432  .00000087  00000+0  19594-3 0  9999
2 48781  87.9000 311.2408 0001771  94.5494 265.5839 13.15548448210334
ONEWEB-0231             
1 48782U 21045R   25272.09479722  .00000169  00000+0  41617-3 0  9996
2 48782  87.8994 311.3118 0001511  98.1893 261.9409 13.15546847210019
ONEWEB-0234             
1 48783U 21045S   25272.05662879 -.00000057  00000+0 -18653-3 0  9992
2 48783  87.9002 311.2892 0002630 101.6306 258.5119 13.15546805210149
ONEWEB-0238             
1 48784U 21045T   25271.52449345 -.00000111  00000+0 -32937-3 0  9997
2 48784  87.8999 311.3908 0002216  98.8899 261.2482 13.15550311209977
ONEWEB-0240             
1 48785U 21045U   25271.54576033  .00000065  00000+0  13947-3 0  9991
2 48785  87.9005 311.3727 0001814 108.6246 251.5081 13.15551300210007
ONEWEB-0246             
1 48786U 21045V   25272.07259898 -.00000072  00000+0 -22404-3 0  9996
2 48786  87.9006 311.2801 0001645  93.7181 266.4137 13.15550023209944
